ONEWEB-0012             
1 44057U 19010A   25304.65431999 -.00000067  00000+0 -20927-3 0  9998
2 44057  87.8980 274.3148 0001506  89.2343 270.8960 13.16594408321494
ONEWEB-0010             
1 44058U 19010B   25304.67965215  .00000105  00000+0  23988-3 0  9995
2 44058  87.8991 274.2959 0002248  90.9570 269.1819 13.16595399321541
ONEWEB-0008             
1 44059U 19010C   25304.85697006 -.00000066  00000+0 -20516-3 0  9998
2 44059  87.8994 274.2572 0001914  78.3362 281.7984 13.16591371321688
ONEWEB-0007             
1 44060U 19010D   25304.55860836 -.00000017  00000+0 -79186-4 0  9994
2 44060  87.8962 304.8548 0001937  99.7304 260.4045 13.15548660321310
ONEWEB-0006             
1 44061U 19010E   25304.71468373 -.00000076  00000+0 -23512-3 0  9999
2 44061  87.8968 304.7671 0002029  96.2503 263.8859 13.15547515321384
ONEWEB-0011             
1 44062U 19010F   25304.53086512  .00000180  00000+0  44283-3 0  9993
2 44062  87.8961 304.8145 0002049  87.2912 272.8453 13.15549309321351
ONEWEB-0013             
1 45131U 20008A   25304.69988485 -.00000535  00000+0 -15892-2 0  9996
2 45131  87.8475  98.9680 0000702 123.2492 236.8702 13.09439335276167
ONEWEB-0017             
1 45132U 20008B   25304.84353220  .00000580  00000+0  16252-2 0  9996
2 45132  87.8773  81.7940 0001872  98.7855 261.3484 13.10371124278048
ONEWEB-0020             
1 45133U 20008C   25304.66091997  .00000002  00000+0 -31760-4 0  9990
2 45133  87.8787  81.8150 0001634  89.3927 270.7388 13.10376773278413
ONEWEB-0021             
1 45134U 20008D   25304.82858844  .00000571  00000+0  15980-2 0  9995
2 45134  87.8773  81.8137 0001669 100.2010 259.9305 13.10376365278749
ONEWEB-0023             
1 45136U 20008F   25304.83937741  .00000713  00000+0  20071-2 0  9997
2 45136  87.8770  81.7939 0001482  91.9907 268.1390 13.10370650278175
ONEWEB-0024             
1 45137U 20008G   25304.43018877 -.00000119  00000+0 -37686-3 0  9997
2 45137  87.8800  81.8366 0001635  97.5912 262.5401 13.10375591278285
ONEWEB-0025             
1 45138U 20008H   25304.82941022 -.00001280  00000+0 -37025-2 0  9994
2 45138  87.8791  81.7646 0001225 104.7761 255.3502 13.10385379278662
ONEWEB-0026             
1 45139U 20008J   25304.80233013  .00000433  00000+0  11855-2 0  9997
2 45139  87.8854  66.5439 0001813  97.8754 262.2580 13.11416878281174
ONEWEB-0028             
1 45140U 20008K   25304.83538528 -.00000465  00000+0 -13470-2 0  9993
2 45140  87.8839  66.5545 0001134 118.1772 241.9470 13.11418479278694
ONEWEB-0032             
1 45141U 20008L   25304.84518602  .00000516  00000+0  14417-2 0  9993
2 45141  87.8775  81.7935 0001467  99.7040 260.4253 13.10370883278394
ONEWEB-0033             
1 45142U 20008M   25304.66757160  .00000294  00000+0  80719-3 0  9990
2 45142  87.8782  81.8413 0001789  97.5701 262.5629 13.10375779278289
