[{"OBJECT_NAME":"ONEWEB-0012","OBJECT_ID":"2019-010A","EPOCH":"2025-10-31T15:42:13.247136","MEAN_MOTION":13.16594408,"ECCENTRICITY":0.0001506,"INCLINATION":87.898,"RA_OF_ASC_NODE":274.3148,"ARG_OF_PERICENTER":89.2343,"MEAN_ANOMALY":270.896,"EPHEMERIS_TYPE":0,"CLASSIFICATION_TYPE":"U","NORAD_CAT_ID":44057,"ELEMENT_SET_NO":999,"REV_AT_EPOCH":32149,"BSTAR":-0.00020927,"MEAN_MOTION_DOT":-6.7e-7,"MEAN_MOTION_DDOT":0},{"OBJECT_NAME":"ONEWEB-0010","OBJECT_ID":"2019-010B","EPOCH":"2025-10-31T16:18:41.945760","MEAN_MOTION":13.16595399,"ECCENTRICITY":0.0002248,"INCLINATION":87.8991,"RA_OF_ASC_NODE":274.2959,"ARG_OF_PERICENTER":90.957,"MEAN_ANOMALY":269.1819,"EPHEMERIS_TYPE":0,"CLASSIFICATION_TYPE":"U","NORAD_CAT_ID":44058,"ELEMENT_SET_NO":999,"REV_AT_EPOCH":32154,"BSTAR":0.00023988,"MEAN_MOTION_DOT":1.05e-6,"MEAN_MOTION_DDOT":0},{"OBJECT_NAME":"ONEWEB-0008","OBJECT_ID":"2019-010C","EPOCH":"2025-10-31T20:34:02.213184","MEAN_MOTION":13.16591371,"ECCENTRICITY":0.0001914,"INCLINATION":87.8994,"RA_OF_ASC_NODE":274.2572,"ARG_OF_PERICENTER":78.3362,"MEAN_ANOMALY":281.7984,"EPHEMERIS_TYPE":0,"CLASSIFICATION_TYPE":"U","NORAD_CAT_ID":44059,"ELEMENT_SET_NO":999,"REV_AT_EPOCH":32168,"BSTAR":-0.00020516,"MEAN_MOTION_DOT":-6.6e-7,"MEAN_MOTION_DDOT":0},{"OBJECT_NAME":"ONEWEB-0007","OBJECT_ID":"2019-010D","EPOCH":"2025-10-31T13:24:23.762304","MEAN_MOTION":13.1554866,"ECCENTRICITY":0.0001937,"INCLINATION":87.8962,"RA_OF_ASC_NODE":304.8548,"ARG_OF_PERICENTER":99.7304,"MEAN_ANOMALY":260.4045,"EPHEMERIS_TYPE":0,"CLASSIFICATION_TYPE":"U","NORAD_CAT_ID":44060,"ELEMENT_SET_NO":999,"REV_AT_EPOCH":32131,"BSTAR":-7.9186e-5,"MEAN_MOTION_DOT":-1.7e-7,"MEAN_MOTION_DDOT":0},{"OBJECT_NAME":"ONEWEB-0006","OBJECT_ID":"2019-010E","EPOCH":"2025-10-31T17:09:08.674272","MEAN_MOTION":13.15547515,"ECCENTRICITY":0.0002029,"INCLINATION":87.8968,"RA_OF_ASC_NODE":304.7671,"ARG_OF_PERICENTER":96.2503,"MEAN_ANOMALY":263.8859,"EPHEMERIS_TYPE":0,"CLASSIFICATION_TYPE":"U","NORAD_CAT_ID":44061,"ELEMENT_SET_NO":999,"REV_AT_EPOCH":32138,"BSTAR":-0.00023512,"MEAN_MOTION_DOT":-7.6e-7,"MEAN_MOTION_DDOT":0},{"OBJECT_NAME":"ONEWEB-0011","OBJECT_ID":"2019-010F","EPOCH":"2025-10-31T12:44:26.746368","MEAN_MOTION":13.15549309,"ECCENTRICITY":0.0002049,"INCLINATION":87.8961,"RA_OF_ASC_NODE":304.8145,"ARG_OF_PERICENTER":87.2912,"MEAN_ANOMALY":272.8453,"EPHEMERIS_TYPE":0,"CLASSIFICATION_TYPE":"U","NORAD_CAT_ID":44062,"ELEMENT_SET_NO":999,"REV_AT_EPOCH":32135,"BSTAR":0.00044283,"MEAN_MOTION_DOT":1.8e-6,"MEAN_MOTION_DDOT":0},{"OBJECT_NAME":"ONEWEB-0013","OBJECT_ID":"2020-008A","EPOCH":"2025-10-31T16:47:50.051040","MEAN_MOTION":13.09439335,"ECCENTRICITY":7.02e-5,"INCLINATION":87.8475,"RA_OF_ASC_NODE":98.968,"ARG_OF_PERICENTER":123.2492,"MEAN_ANOMALY":236.8702,"EPHEMERIS_TYPE":0,"CLASSIFICATION_TYPE":"U","NORAD_CAT_ID":45131,"ELEMENT_SET_NO":999,"REV_AT_EPOCH":27616,"BSTAR":-0.0015892,"MEAN_MOTION_DOT":-5.35e-6,"MEAN_MOTION_DDOT":0},{"OBJECT_NAME":"ONEWEB-0017","OBJECT_ID":"2020-008B","EPOCH":"2025-10-31T20:14:41.182080","MEAN_MOTION":13.10371124,"ECCENTRICITY":0.0001872,"INCLINATION":87.8773,"RA_OF_ASC_NODE":81.794,"ARG_OF_PERICENTER":98.7855,"MEAN_ANOMALY":261.3484,"EPHEMERIS_TYPE":0,"CLASSIFICATION_TYPE":"U","NORAD_CAT_ID":45132,"ELEMENT_SET_NO":999,"REV_AT_EPOCH":27804,"BSTAR":0.0016252,"MEAN_MOTION_DOT":5.8e-6,"MEAN_MOTION_DDOT":0},{"OBJECT_NAME":"ONEWEB-0020","OBJECT_ID":"2020-008C","EPOCH":"2025-10-31T15:51:43.485408","MEAN_MOTION":13.10376773,"ECCENTRICITY":0.0001634,"INCLINATION":87.8787,"RA_OF_ASC_NODE":81.815,"ARG_OF_PERICENTER":89.3927,"MEAN_ANOMALY":270.7388,"EPHEMERIS_TYPE":0,"CLASSIFICATION_TYPE":"U","NORAD_CAT_ID":45133,"ELEMENT_SET_NO":999,"REV_AT_EPOCH":27841,"BSTAR":-3.176e-5,"MEAN_MOTION_DOT":2.0e-8,"MEAN_MOTION_DDOT":0},{"OBJECT_NAME":"ONEWEB-0021","OBJECT_ID":"2020-008D","EPOCH":"2025-10-31T19:53:10.041216","MEAN_MOTION":13.10376365,"ECCENTRICITY":0.0001669,"INCLINATION":87.8773,"RA_OF_ASC_NODE":81.8137,"ARG_OF_PERICENTER":100.201,"MEAN_ANOMALY":259.9305,"EPHEMERIS_TYPE":0,"CLASSIFICATION_TYPE":"U","NORAD_CAT_ID":45134,"ELEMENT_SET_NO":999,"REV_AT_EPOCH":27874,"BSTAR":0.001598,"MEAN_MOTION_DOT":5.71e-6,"MEAN_MOTION_DDOT":0},{"OBJECT_NAME":"ONEWEB-0023","OBJECT_ID":"2020-008F","EPOCH":"2025-10-31T20:08:42.208224","MEAN_MOTION":13.1037065,"ECCENTRICITY":0.0001482,"INCLINATION":87.877,"RA_OF_ASC_NODE":81.7939,"ARG_OF_PERICENTER":91.9907,"MEAN_ANOMALY":268.139,"EPHEMERIS_TYPE":0,"CLASSIFICATION_TYPE":"U","NORAD_CAT_ID":45136,"ELEMENT_SET_NO":999,"REV_AT_EPOCH":27817,"BSTAR":0.0020071,"MEAN_MOTION_DOT":7.13e-6,"MEAN_MOTION_DDOT":0},{"OBJECT_NAME":"ONEWEB-0024","OBJECT_ID":"2020-008G","EPOCH":"2025-10-31T10:19:28.309728","MEAN_MOTION":13.10375591,"ECCENTRICITY":0.0001635,"INCLINATION":87.88,"RA_OF_ASC_NODE":81.8366,"ARG_OF_PERICENTER":97.5912,"MEAN_ANOMALY":262.5401,"EPHEMERIS_TYPE":0,"CLASSIFICATION_TYPE":"U","NORAD_CAT_ID":45137,"ELEMENT_SET_NO":999,"REV_AT_EPOCH":27828,"BSTAR":-0.00037686,"MEAN_MOTION_DOT":-1.19e-6,"MEAN_MOTION_DDOT":0},{"OBJECT_NAME":"ONEWEB-0025","OBJECT_ID":"2020-008H","EPOCH":"2025-10-31T19:54:21.043008","MEAN_MOTION":13.10385379,"ECCENTRICITY":0.0001225,"INCLINATION":87.8791,"RA_OF_ASC_NODE":81.7646,"ARG_OF_PERICENTER":104.7761,"MEAN_ANOMALY":255.3502,"EPHEMERIS_TYPE":0,"CLASSIFICATION_TYPE":"U","NORAD_CAT_ID":45138,"ELEMENT_SET_NO":999,"REV_AT_EPOCH":27866,"BSTAR":-0.0037025,"MEAN_MOTION_DOT":-1.28e-5,"MEAN_MOTION_DDOT":0},{"OBJECT_NAME":"ONEWEB-0026","OBJECT_ID":"2020-008J","EPOCH":"2025-10-31T19:15:21.323232","MEAN_MOTION":13.11416878,"ECCENTRICITY":0.0001813,"INCLINATION":87.8854,"RA_OF_ASC_NODE":66.5439,"ARG_OF_PERICENTER":97.8754,"MEAN_ANOMALY":262.258,"EPHEMERIS_TYPE":0,"CLASSIFICATION_TYPE":"U","NORAD_CAT_ID":45139,"ELEMENT_SET_NO":999,"REV_AT_EPOCH":28117,"BSTAR":0.0011855,"MEAN_MOTION_DOT":4.33e-6,"MEAN_MOTION_DDOT":0},{"OBJECT_NAME":"ONEWEB-0028","OBJECT_ID":"2020-008K","EPOCH":"2025-10-31T20:02:57.288192","MEAN_MOTION":13.11418479,"ECCENTRICITY":0.0001134,"INCLINATION":87.8839,"RA_OF_ASC_NODE":66.5545,"ARG_OF_PERICENTER":118.1772,"MEAN_ANOMALY":241.947,"EPHEMERIS_TYPE":0,"CLASSIFICATION_TYPE":"U","NORAD_CAT_ID":45140,"ELEMENT_SET_NO":999,"REV_AT_EPOCH":27869,"BSTAR":-0.001347,"MEAN_MOTION_DOT":-4.65e-6,"MEAN_MOTION_DDOT":0},{"OBJECT_NAME":"ONEWEB-0032","OBJECT_ID":"2020-008L","EPOCH":"2025-10-31T20:17:04.072128","MEAN_MOTION":13.10370883,"ECCENTRICITY":0.0001467,"INCLINATION":87.8775,"RA_OF_ASC_NODE":81.7935,"ARG_OF_PERICENTER":99.704,"MEAN_ANOMALY":260.4253,"EPHEMERIS_TYPE":0,"CLASSIFICATION_TYPE":"U","NORAD_CAT_ID":45141,"ELEMENT_SET_NO":999,"REV_AT_EPOCH":27839,"BSTAR":0.0014417,"MEAN_MOTION_DOT":5.16e-6,"MEAN_MOTION_DDOT":0},{"OBJECT_NAME":"ONEWEB-0033","OBJECT_ID":"2020-008M","EPOCH":"2025-10-31T16:01:18.186240","MEAN_MOTION":13.10375779,"ECCENTRICITY":0.0001789,"INCLINATION":87.8782,"RA_OF_ASC_NODE":81.8413,"ARG_OF_PERICENTER":97.5701,"MEAN_ANOMALY":262.5629,"EPHEMERIS_TYPE":0,"CLASSIFICATION_TYPE":"U","NORAD_CAT_ID":45142,"ELEMENT_SET_NO":999,"REV_AT_EPOCH":27828,"BSTAR":0.00080719,"MEAN_MOTION_DOT":2.94e-6,"MEAN_MOTION_DDOT":0}]
